#aV2013 12  3  0  0  0.00000000     288 DD+AD WGS84 FIT  NGA
## 1769 172800.00000000   300.00000000 56629 0.0000000000000
+   31     1  2  3  4  5  6  7  8  9 10 11 12 13 14 15 16 17
+         18 19 20 21 22 23 24 25 26 27 28 29 31 32  0  0  0
+          0  0  0  0  0  0  0  0  0  0  0  0  0  0  0  0  0
+          0  0  0  0  0  0  0  0  0  0  0  0  0  0  0  0  0
+          0  0  0  0  0  0  0  0  0  0  0  0  0  0  0  0  0
++         2  2  2  2  2  2  2  2  2  2  2  2  2  2  2  2  2
++         2  2  2  2  2  2  2  2  2  2  2  2  2  2  0  0  0
++         0  0  0  0  0  0  0  0  0  0  0  0  0  0  0  0  0
++         0  0  0  0  0  0  0  0  0  0  0  0  0  0  0  0  0
++         0  0  0  0  0  0  0  0  0  0  0  0  0  0  0  0  0
%c cc cc ccc ccc cccc cccc cccc cccc ccccc ccccc ccccc ccccc
%c cc cc ccc ccc cccc cccc cccc cccc ccccc ccccc ccccc ccccc
%f  0.0000000  0.000000000  0.00000000000  0.000000000000000
%f  0.0000000  0.000000000  0.00000000000  0.000000000000000
%i    0    0    0    0      0      0      0      0         0
%i    0    0    0    0      0      0      0      0         0
/*      NGA, ST. LOUIS,MO.                                  
/*   EPHEMERIS COMPUTED FROM  1 DAYS OF DATA                
/*   EPOCHA SMOOTHER                                       
/* CCCCCCCCCCCCCCCCCCCCCCCCCCCCCCCCCCCCCCCCCCCCCCCCCCCCCCCCC
*  2013 12  3 18 50  0.00000000
P  1  -1470.338512  16447.562781 -20814.796655     91.262189                    
V  1 -24634.842225   9472.029498   9349.729705      0.029991                    
P  2  21118.448545 -14515.987387   6121.045488    464.853714                    
V  2   8482.503596    284.797976 -30258.629382      0.021226                    
P  3  -8460.194976  21555.769276  12316.384373    294.519365                    
V  3  -3649.031050 -16515.367195  25477.988510      0.049023                    
P  4  25174.897109  -4667.001682  -7841.733725      3.854902                    
V  4  -7512.077796   6588.000481 -28935.175333      0.003495                    
P  5  11968.927101 -10223.757354  21369.168824   -396.260178                    
V  5  21642.405810  16569.731153  -4029.820561      0.008736                    
P  6 -13414.345768  14774.507036  17388.488550    177.370655                    
V  6  -1015.946135 -22264.523593  18578.024894      0.166005                    
P  7  14456.708393   9168.766314  20460.109159    287.566212                    
V  7 -23585.616826  10237.838039  11803.620737      0.041582                    
P  8  23022.576615   2451.402438  13695.536622     10.321635                    
V  8 -15934.022347   5570.835048  25472.369862      0.002638                    
P  9  22881.688509   -288.547530  13075.431971    287.750902                    
V  9 -15303.339906   8440.499884  25786.785397      0.029539                    
P 10  22712.862353   6233.804511  12359.304747   -104.358825                    
V 10  11154.642823  11867.514077 -25387.323807     -0.015652                    
P 11  -6451.428676  21348.943283 -14737.893651   -443.524062                    
V 11 -16149.196338   9209.396018  21335.746937     -0.033824                    
P 12  -5471.423438 -19334.239796 -17525.278274    171.815180                    
V 12  17816.413141  12987.106712 -19741.370312      0.022875                    
P 13   6620.168009  19828.511001  16167.678770     53.634305                    
V 13  -6191.109868  19913.103421 -21847.982823     -0.037867                    
P 14 -14675.851122  -2358.241035 -21792.600126    208.876787                    
V 14   5283.548060 -27660.451099   -696.913115     -0.011116                    
P 15   3624.367782 -26087.482905   1851.021464   -150.345627                    
V 15   3519.074824   2736.196912  31330.390692     -0.019831                    
P 16 -11880.410066   8995.686388  21983.849021   -239.983621                    
V 16 -21292.465404 -17994.492057  -3807.503171      0.011632                    
P 17  14749.596470   2526.391200 -21710.022304    -46.603030                    
V 17  -4414.586739  27759.645082     -6.886973     -0.034985                    
P 18 -20376.690156 -17227.152370   2229.681626    288.424113                    
V 18   3986.030836  -1477.910014  30592.622948      0.021269                    
P 19  -7351.461214  25119.816435   2722.526144   -422.882205                    
V 19  -2222.841657  -4209.205906  31865.659621     -0.026028                    
P 20   9394.444383  19870.732764 -15152.032070    141.745194                    
V 20 -17266.266217  -8307.167852 -21791.454036      0.029896                    
P 21 -17122.239923  -8259.736343  19326.515871   -331.389761                    
V 21  20825.234438 -10411.363051  13955.849086     -0.017397                    
P 22 -23336.255442  -8843.886129  -9104.792651    198.686720                    
V 22  -7399.888785  -9905.204037  27830.923727      0.023254                    
P 23   1417.864619  25477.104981   6663.160495     24.697985                    
V 23  -4277.439908   7953.463207 -30316.038929     -0.033392                    
P 24   6325.233660 -17390.957676 -19029.796072    -19.178635                    
V 24  22732.995428  -8393.978825  15297.538324     -0.006096                    
P 25 -16871.356038 -19092.829882  -7751.684680    171.634230                    
V 25   9071.047247   4097.765338 -29944.900913      0.029031                    
P 26  12521.398422 -19564.796088  11936.330516    232.290442                    
V 26  -1196.455712  16394.087557  27009.045248     -0.104684                    
P 27 -12447.770222  18286.499654  14678.530811     -5.144267                    
V 27    114.639682 -18772.065664  23490.122593     -0.030979                    
P 28  22094.362109  13050.515035  -6572.928233    313.715512                    
V 28   5679.817330   7350.457560  30719.148032      0.030507                    
P 29  -5107.639983 -22695.957506  12895.363562    492.172578                    
V 29   4782.168106 -15695.812587 -25773.951201      0.032002                    
P 31 -25417.919637   6537.914014  -4848.182779    330.622623                    
V 31   5150.868795  -4135.361555 -31180.708157      0.005438                    
P 32  -2194.378254  17337.860945 -20057.406581   -521.503156                    
V 32 -19676.739311 -16336.546730 -11379.733707      0.050958                    
EOF
